{"type": "FeatureCollection", "features": [ {"type": "Feature", "properties": {"norad_id": 34529, "name": "IRIDIUM 33 DEB", "group": "iridium-33-debris", "lat": 77.88618556937591, "lon": -159.11479676612683, "alt_km": 749.666535547789, "timestamp": "2025-12-06T09:34:17.299450+00:00", "meta": {"OBJECT_NAME": "IRIDIUM 33 DEB", "OBJECT_ID": "1997-051HW", "EPOCH": "2025-12-05T16:25:52.738752", "MEAN_MOTION": 14.40607273, "ECCENTRICITY": 0.00039387, "INCLINATION": 86.3647, "RA_OF_ASC_NODE": 38.419, "ARG_OF_PERICENTER": 201.6561, "MEAN_ANOMALY": 158.4472, "EPHEMERIS_TYPE": 0, "CLASSIFICATION_TYPE": "U", "NORAD_CAT_ID": 34529, "ELEMENT_SET_NO": 999, "REV_AT_EPOCH": 88040, "BSTAR": 0.00022639258, "MEAN_MOTION_DOT": 7.41e-06, "MEAN_MOTION_DDOT": 0}, "tle": {"line1": "1 34529U 97051HW  25339.68463818  .00000741  00000+0  22639-3 0  9997", "line2": "2 34529  86.3647  38.4190 0003938 201.6561 158.4472 14.40607273880403"}}, "geometry": {"type": "Point", "coordinates": [-159.11479676612683, 77.88618556937591]}}, {"type": "Feature", "properties": {"norad_id": 34538, "name": "IRIDIUM 33 DEB", "group": "iridium-33-debris", "lat": -72.17735148861473, "lon": -159.98306103551215, "alt_km": 760.1606291004819, "timestamp": "2025-12-06T09:34:17.299460+00:00", "meta": {"OBJECT_NAME": "IRIDIUM 33 DEB", "OBJECT_ID": "1997-051JF", "EPOCH": "2025-12-05T13:07:40.840608", "MEAN_MOTION": 14.42583503, "ECCENTRICITY": 0.00337266, "INCLINATION": 86.2775, "RA_OF_ASC_NODE": 8.7066, "ARG_OF_PERICENTER": 352.2765, "MEAN_ANOMALY": 159.7147, "EPHEMERIS_TYPE": 0, "CLASSIFICATION_TYPE": "U", "NORAD_CAT_ID": 34538, "ELEMENT_SET_NO": 999, "REV_AT_EPOCH": 87652, "BSTAR": 0.0017788509, "MEAN_MOTION_DOT": 5.964e-05, "MEAN_MOTION_DDOT": 0}, "tle": {"line1": "1 34538U 97051JF  25339.54700047  .00005964  00000+0  17789-2 0  9991", "line2": "2 34538  86.2775   8.7066 0033726 352.2765 159.7147 14.42583503876525"}}, "geometry": {"type": "Point", "coordinates": [-159.98306103551215, -72.17735148861473]}}, {"type": "Feature", "properties": {"norad_id": 34540, "name": "IRIDIUM 33 DEB", "group": "iridium-33-debris", "lat": -71.4365287774894, "lon": -60.57497973179411, "alt_km": 655.0784517217753, "timestamp": "2025-12-06T09:34:17.299471+00:00", "meta": {"OBJECT_NAME": "IRIDIUM 33 DEB", "OBJECT_ID": "1997-051JH", "EPOCH": "2025-12-05T16:47:20.617152", "MEAN_MOTION": 14.75090008, "ECCENTRICITY": 0.00152233, "INCLINATION": 86.3098, "RA_OF_ASC_NODE": 310.8245, "ARG_OF_PERICENTER": 184.7757, "MEAN_ANOMALY": 352.3663, "EPHEMERIS_TYPE": 0, "CLASSIFICATION_TYPE": "U", "NORAD_CAT_ID": 34540, "ELEMENT_SET_NO": 999, "REV_AT_EPOCH": 88917, "BSTAR": 0.003042779, "MEAN_MOTION_DOT": 0.00020606, "MEAN_MOTION_DDOT": 0}, "tle": {"line1": "1 34540U 97051JH  25339.69954418  .00020606  00000+0  30428-2 0  9998", "line2": "2 34540  86.3098 310.8245 0015223 184.7757 352.3663 14.75090008889172"}}, "geometry": {"type": "Point", "coordinates": [-60.57497973179411, -71.4365287774894]}}, {"type": "Feature", "properties": {"norad_id": 34648, "name": "IRIDIUM 33 DEB", "group": "iridium-33-debris", "lat": 85.66723659558825, "lon": 48.09752964624331, "alt_km": 939.4079838844227, "timestamp": "2025-12-06T09:34:17.299481+00:00", "meta": {"OBJECT_NAME": "IRIDIUM 33 DEB", "OBJECT_ID": "1997-051JZ", "EPOCH": "2025-12-05T14:25:00.080832", "MEAN_MOTION": 14.11133288, "ECCENTRICITY": 0.01851844, "INCLINATION": 86.391, "RA_OF_ASC_NODE": 284.8271, "ARG_OF_PERICENTER": 321.0123, "MEAN_ANOMALY": 37.7826, "EPHEMERIS_TYPE": 0, "CLASSIFICATION_TYPE": "U", "NORAD_CAT_ID": 34648, "ELEMENT_SET_NO": 999, "REV_AT_EPOCH": 84860, "BSTAR": 0.014281449, "MEAN_MOTION_DOT": 0.00030319, "MEAN_MOTION_DDOT": 0}, "tle": {"line1": "1 34648U 97051JZ  25339.60069538  .00030319  00000+0  14281-1 0  9998", "line2": "2 34648  86.3910 284.8271 0185184 321.0123  37.7826 14.11133288848606"}}, "geometry": {"type": "Point", "coordinates": [48.09752964624331, 85.66723659558825]}}, {"type": "Feature", "properties": {"norad_id": 34651, "name": "IRIDIUM 33 DEB", "group": "iridium-33-debris", "lat": 0.6006729414261405, "lon": -36.76551787761284, "alt_km": 736.1869179795303, "timestamp": "2025-12-06T09:34:17.299491+00:00", "meta": {"OBJECT_NAME": "IRIDIUM 33 DEB", "OBJECT_ID": "1997-051KC", "EPOCH": "2025-12-05T22:36:55.219392", "MEAN_MOTION": 14.25637753, "ECCENTRICITY": 0.01419171, "INCLINATION": 86.2829, "RA_OF_ASC_NODE": 143.4677, "ARG_OF_PERICENTER": 225.5331, "MEAN_ANOMALY": 133.4185, "EPHEMERIS_TYPE": 0, "CLASSIFICATION_TYPE": "U", "NORAD_CAT_ID": 34651, "ELEMENT_SET_NO": 999, "REV_AT_EPOCH": 85799, "BSTAR": 0.005033692, "MEAN_MOTION_DOT": 0.00013284, "MEAN_MOTION_DDOT": 0}, "tle": {"line1": "1 34651U 97051KC  25339.94230578  .00013284  00000+0  50337-2 0  9998", "line2": "2 34651  86.2829 143.4677 0141917 225.5331 133.4185 14.25637753857998"}}, "geometry": {"type": "Point", "coordinates": [-36.76551787761284, 0.6006729414261405]}}, {"type": "Feature", "properties": {"norad_id": 34652, "name": "IRIDIUM 33 DEB", "group": "iridium-33-debris", "lat": 55.059385089722255, "lon": 157.55505007658132, "alt_km": 699.788192727131, "timestamp": "2025-12-06T09:34:17.299501+00:00", "meta": {"OBJECT_NAME": "IRIDIUM 33 DEB", "OBJECT_ID": "1997-051KD", "EPOCH": "2025-12-05T06:47:28.910400", "MEAN_MOTION": 14.6194715, "ECCENTRICITY": 0.00267279, "INCLINATION": 86.3306, "RA_OF_ASC_NODE": 343.3218, "ARG_OF_PERICENTER": 325.0807, "MEAN_ANOMALY": 50.6373, "EPHEMERIS_TYPE": 0, "CLASSIFICATION_TYPE": "U", "NORAD_CAT_ID": 34652, "ELEMENT_SET_NO": 999, "REV_AT_EPOCH": 88375, "BSTAR": 0.0018811698, "MEAN_MOTION_DOT": 9.492e-05, "MEAN_MOTION_DDOT": 0}, "tle": {"line1": "1 34652U 97051KD  25339.28297350  .00009492  00000+0  18812-2 0  9995", "line2": "2 34652  86.3306 343.3218 0026727 325.0807  50.6373 14.61947150883754"}}, "geometry": {"type": "Point", "coordinates": [157.55505007658132, 55.059385089722255]}}, {"type": "Feature", "properties": {"norad_id": 34690, "name": "IRIDIUM 33 DEB", "group": "iridium-33-debris", "lat": 34.168669078278, "lon": -142.7162598043419, "alt_km": 708.1963147804545, "timestamp": "2025-12-06T09:34:17.299512+00:00", "meta": {"OBJECT_NAME": "IRIDIUM 33 DEB", "OBJECT_ID": "1997-051KM", "EPOCH": "2025-12-05T05:07:04.785312", "MEAN_MOTION": 14.55051508, "ECCENTRICITY": 0.00116101, "INCLINATION": 86.3789, "RA_OF_ASC_NODE": 40.2624, "ARG_OF_PERICENTER": 51.712, "MEAN_ANOMALY": 7.605, "EPHEMERIS_TYPE": 0, "CLASSIFICATION_TYPE": "U", "NORAD_CAT_ID": 34690, "ELEMENT_SET_NO": 999, "REV_AT_EPOCH": 87985, "BSTAR": 0.00091494528, "MEAN_MOTION_DOT": 3.967e-05, "MEAN_MOTION_DDOT": 0}, "tle": {"line1": "1 34690U 97051KM  25339.21324983  .00003967  00000+0  91495-3 0  9993", "line2": "2 34690  86.3789  40.2624 0011610  51.7120   7.6050 14.55051508879857"}}, "geometry": {"type": "Point", "coordinates": [-142.7162598043419, 34.168669078278]}}, {"type": "Feature", "properties": {"norad_id": 34693, "name": "IRIDIUM 33 DEB", "group": "iridium-33-debris", "lat": -1.167408476565051, "lon": -53.106745469995374, "alt_km": 486.6416004218718, "timestamp": "2025-12-06T09:34:17.299522+00:00", "meta": {"OBJECT_NAME": "IRIDIUM 33 DEB", "OBJECT_ID": "1997-051KQ", "EPOCH": "2025-12-05T16:30:41.219712", "MEAN_MOTION": 15.25520042, "ECCENTRICITY": 0.00157455, "INCLINATION": 86.3065, "RA_OF_ASC_NODE": 307.3204, "ARG_OF_PERICENTER": 63.4538, "MEAN_ANOMALY": 354.1947, "EPHEMERIS_TYPE": 0, "CLASSIFICATION_TYPE": "U", "NORAD_CAT_ID": 34693, "ELEMENT_SET_NO": 999, "REV_AT_EPOCH": 88807, "BSTAR": 0.0071412513, "MEAN_MOTION_DOT": 0.00185757, "MEAN_MOTION_DDOT": 0}, "tle": {"line1": "1 34693U 97051KQ  25339.68797708  .00185757  00000+0  71413-2 0  9991", "line2": "2 34693  86.3065 307.3204 0015745  63.4538 354.1947 15.25520042888075"}}, "geometry": {"type": "Point", "coordinates": [-53.106745469995374, -1.167408476565051]}}, {"type": "Feature", "properties": {"norad_id": 34696, "name": "IRIDIUM 33 DEB", "group": "iridium-33-debris", "lat": 60.67705537115053, "lon": 37.294259984963226, "alt_km": 704.7381831842076, "timestamp": "2025-12-06T09:34:17.299532+00:00", "meta": {"OBJECT_NAME": "IRIDIUM 33 DEB", "OBJECT_ID": "1997-051KT", "EPOCH": "2025-12-05T04:01:30.427392", "MEAN_MOTION": 14.64460399, "ECCENTRICITY": 0.00745546, "INCLINATION": 86.1851, "RA_OF_ASC_NODE": 31.0439, "ARG_OF_PERICENTER": 193.3089, "MEAN_ANOMALY": 221.7713, "EPHEMERIS_TYPE": 0, "CLASSIFICATION_TYPE": "U", "NORAD_CAT_ID": 34696, "ELEMENT_SET_NO": 999, "REV_AT_EPOCH": 86562, "BSTAR": 0.011279279, "MEAN_MOTION_DOT": 0.0006268, "MEAN_MOTION_DDOT": 0}, "tle": {"line1": "1 34696U 97051KT  25339.16771328  .00062680  00000+0  11279-1 0  9999", "line2": "2 34696  86.1851  31.0439 0074554 193.3089 221.7713 14.64460399865623"}}, "geometry": {"type": "Point", "coordinates": [37.294259984963226, 60.67705537115053]}}, {"type": "Feature", "properties": {"norad_id": 34765, "name": "IRIDIUM 33 DEB", "group": "iridium-33-debris", "lat": 32.41714592686686, "lon": -146.84825253323675, "alt_km": 754.6532607557656, "timestamp": "2025-12-06T09:34:17.299542+00:00", "meta": {"OBJECT_NAME": "IRIDIUM 33 DEB", "OBJECT_ID": "1997-051LJ", "EPOCH": "2025-12-05T11:30:48.073248", "MEAN_MOTION": 14.40435892, "ECCENTRICITY": 0.00147835, "INCLINATION": 86.3394, "RA_OF_ASC_NODE": 35.8759, "ARG_OF_PERICENTER": 237.5121, "MEAN_ANOMALY": 187.0944, "EPHEMERIS_TYPE": 0, "CLASSIFICATION_TYPE": "U", "NORAD_CAT_ID": 34765, "ELEMENT_SET_NO": 999, "REV_AT_EPOCH": 87509, "BSTAR": 0.00075713692, "MEAN_MOTION_DOT": 2.427e-05, "MEAN_MOTION_DDOT": 0}, "tle": {"line1": "1 34765U 97051LJ  25339.47972307  .00002427  00000+0  75714-3 0  9999", "line2": "2 34765  86.3394  35.8759 0014783 237.5121 187.0944 14.40435892875093"}}, "geometry": {"type": "Point", "coordinates": [-146.84825253323675, 32.41714592686686]}}]}